#dP2023  8 27 12  0  0.00000000      96 __u+U ITR00 EXT  IAC
## 2277  43200.00000000   900.00000000 60183 0.5000000000000
+  119   C06C07C08C09C10C11C12C13C14C16C19C20C21C22C23C24C25
+        C26C27C28C29C30C32C33C34C35C36C37C38C39C40C41C42C43
+        C44C45C46E02E03E04E05E07E08E09E10E11E12E13E14E15E18
+        E19E21E24E25E26E27E30E31E33E34E36G01G02G03G04G05G06
+        G07G08G09G10G11G12G13G14G15G16G17G18G19G20G21G22G23
+        G24G25G26G27G28G29G30G31G32J02J03J04R01R02R03R04R05
+        R07R08R09R11R12R13R14R15R16R17R18R19R20R21R22R24R25
++         9 10 10  9  8  9  8  9  9  9  7  8  7  9 10  8  9
++         7  9  9  9  9  9  8  7  6  8  9  9  9 11 11  8  8
++         7  8  8  6  8  8  7  7  6  7  6  8  7  6  6  8  8
++         6  8  6  7  8  6  7  8  7  7  7  7  6  8  8  7  6
++         6  7  8  7  7  7  6  6  6  7  7  7  7  6  6  7  6
++         8  7  7  6  9  7  6  8  0  9 10  8  9  6  8  8  8
++         7  8  9  7  8  6  9  8  8  7  6  9  8  9  9  8  8
%c M  cc GPS ccc cccc cccc cccc cccc ccccc ccccc ccccc ccccc
%c cc cc ccc ccc cccc cccc cccc cccc ccccc ccccc ccccc ccccc
%f  0.0000000  0.000000000  0.00000000000  0.000000000000000
%f  0.0000000  0.000000000  0.00000000000  0.000000000000000
%i    0    0    0    0      0      0      0      0         0
%i    0    0    0    0      0      0      0      0         0
/* IAC                                ULTRA-RAPID PREDICTION
/* S/V CLOCKS ARE ALIGNED TO GNSS TIME                      
/* G:C1WC2W R:C1PC2P E:C1XC5X C:C2IC6I J:C1CC2S             
/* PCV:IGS20_2274 OL/AL:FES2004  NONE     YN ORB:CoN CLK:CoN
*  2023 08 28  0 30  0.00000000
PC06 -10445.940396  22974.437807 -33790.463490    938.193168
PC07 -15552.668490  38351.462138   7523.749000      2.922238
PC08    299.864461  34595.610981  24228.671601    371.515277
PC09  -1203.802003  24391.540480 -33912.842705    238.849557
PC10  -9167.592195  38571.920888  13846.726843   -159.362275
PC11 -19655.021274  -9858.891247 -17098.319072    801.816332
PC12    394.154750 -15471.403655 -23184.716327    908.180041
PC13   4980.097164  37621.227169  18809.439195    341.871076
PC14 -10210.846989 -13973.257240  21910.738404    303.004476
PC16 -14306.916509  21277.910977 -33272.121129    -54.210541
PC19  15330.133729   3875.115779 -22979.499840   -970.028599
PC20   4665.765863  20434.806819 -18405.867648    328.742509
PC21   9811.206306 -26042.324228   2245.551002   -957.565277
PC22  17802.182652 -15811.173720 -14585.636866   -332.597051
PC23 -16820.345098   3838.335481 -21921.701238   -890.460912
PC24 -12755.528286 -24174.600342   5553.724846    330.394930
PC25 -21316.512631 -13150.121076 -12290.301894    198.686978
PC26   1540.723434 -20382.835695  18969.878680   -169.394663
PC27 -10000.492344  15590.999556  20853.240741    190.733579
PC28 -24664.128178   9043.218010   9406.546460    142.838123
PC29  25974.565908   3215.516870   9684.851322    166.706459
PC30  10628.783621  13875.578006  21743.270118     -4.078304
PC32  -9678.036887  26081.491301  -2114.507771   -530.365852
PC33 -15322.781337  -3954.895902  22979.725294   -948.973112
PC34 -12150.754332 -13402.314486 -21264.078414    246.673685
PC35  24403.351011  -9882.135966  -9218.600106    558.760644
PC36  20947.083292  14320.230968  11652.474860   -254.719930
PC37  -2745.176015  19855.089769 -19408.779405   -815.335411
PC38  -6439.736744  30151.700500  28858.661809    100.992825
PC39 -19922.455253  20214.736576 -31215.148892     -4.522935
PC40 -22967.277521  34754.878214   5499.664286    -34.425165
PC41 -17881.762159  15173.433294  15163.640406   -883.723677
PC42  -3660.519972 -21472.651243  17493.527369   -564.428260
PC43 -25599.879536  -3903.005389 -10429.470042     37.175566
PC44   9557.724433 -16079.504467 -20714.883881    213.471116
PC45  16454.298354  -4275.823979  22138.248391    -18.986426
PC46  13656.777573  23972.233195  -4327.835684    -79.832856
PE02 -14659.050843  12627.924331 -22401.094999     58.365980
PE03 -25241.584567  15323.057839   1953.773155    -50.207970
PE04  12719.647954 -21712.875369  15592.823582   -199.072013
PE05 -23128.224544    -42.937862  18472.031441     12.991706
PE07   7120.593235  15584.969758 -24134.092420    -70.557225
PE08 -13137.129990  21645.168761 -15325.579083   -137.113093
PE09  -6883.096761 -15565.424136  24218.319406   -135.761876
PE10  -7732.468305 -18994.434698 -21350.093551   -559.365484
PE11 -17890.982870 -18910.136338 -14106.767057   2815.382641
PE12   2728.153728 -16334.364703 -24542.343898   -674.840782
PE13  17337.131636  18955.307976  14708.368830    -19.522818
PE14  23285.968513 -20658.399969  -7779.837941    323.671025
PE15  -3116.734559  16092.728257  24647.367067    -48.567632
PE18 -19581.235022  13448.539381   2928.151058    463.555875
PE19  25912.437177 -13610.410325  -4408.034874  -1756.689070
PE21  16418.835528   8898.478138  22971.388053   -549.208247
PE24  -8335.242410 -26693.788630  -9680.924481   -289.605198
PE25 -16353.049715  -9305.285794 -22838.276526     -0.927311
PE26  27435.697860  10229.660385  -4381.519651    205.425012
PE27   8758.810628  26365.659350  10231.709215   -135.394429
PE30  -4378.902626  27932.252941  -8783.187347   -452.955209
PE31   3991.486225 -28100.084178   8416.089046     -3.698978
PE33  21895.423011  -3367.057684 -19642.743138     -1.109480
PE34 -21435.702869   3899.331523  20018.576280    -63.895016
PE36 -27353.070337 -10692.441397   3686.387113   -107.487821
PG01 -21652.533980 -15105.472406  -4607.871655    167.117465
PG02 -18561.027588 -15583.393061 -10554.170532   -560.660070
PG03 -12266.812259 -16041.110140  17164.876248   -165.785628
PG04 -17136.644760  -5609.537448  19550.526642    138.663104
PG05   5608.142385  25523.651298  -4619.111493   -140.472871
PG06 -11215.559816  10299.635492  21835.129455    559.954321
PG07 -24213.963151  -4392.009032 -10117.792215     83.570019
PG08  -7669.736407 -13290.837710 -21739.911430   -139.327872
PG09 -22353.920004   3256.010976  13924.187394    -75.334738
PG10  11203.631970 -15818.150075 -17827.959180    -51.033265
PG11   3090.495734  17552.661596  19718.601150   -340.927145
PG12   9541.937467  20024.011425  14388.386213   -417.996536
PG13  -2264.162614  16651.331848 -20706.615855    565.458807
PG14 -13526.389012  12396.433814 -19123.676156    167.278319
PG15  10176.172084  12394.641929 -21649.629537     71.896168
PG16    552.512811 -26301.287182   -733.019037   -462.422130
PG17 -22591.705953  14012.193748   1789.075730    723.240182
PG18  23117.791117   2414.717275 -13011.637168   -397.582233
PG19 -18764.136153  16184.162828   8878.178636    363.548710
PG20    445.060067  25684.666838   7160.708516    414.934557
PG21 -17082.214323 -16345.076304 -12424.965206    149.998855
PG22 -10639.759392  19687.756088 -14048.133652    133.233227
PG23  14747.464975  -2375.242942 -21951.192833     60.584691
PG24  19887.668345  15517.484682  -9338.412861   -302.642759
PG25  15122.025695   6250.301760  20656.311909    464.596188
PG26   5191.910127 -23506.606657  10705.408046    231.162110
PG27   5135.135560 -18498.965549 -18424.352862    -29.594658
PG28  13002.565923  -9971.617042  20882.191630     -2.553375
PG29  22514.914379  -1332.034151  14063.720500   -608.516156
PG30 -19437.353127   4430.319520 -17553.306575   -492.862206
PG31   2968.185804 -15449.016070  21161.469006   -222.514113
PG32  19671.754256 -17028.521231   4940.938741   -548.192888
PJ02 -21941.218718  28745.214783 -17015.161543     -3.146648
PJ03 -29292.837503  22926.345683  24877.824449     -1.698036
PJ04 -29891.154650  29253.741404  12032.592436     70.497315
PR01 -13198.700558   1331.911906  21781.223626     64.380154
PR02 -16945.015912  16475.770253   9723.294554    -22.495044
PR03 -10535.033685  21946.872739  -7679.662654     84.112301
PR04   1208.100662  15042.076319 -20546.677562    200.439563
PR05  12453.682693    181.361169 -22249.586969    118.037755
PR07   9962.337112 -21830.527750   8610.186522     63.359519
PR08  -1612.498871 -14917.296775  20672.071540    -72.317960
PR09   9319.487942  -6621.714242  22827.707184    139.052951
PR11 -11217.628469 -22914.390250    531.986083   -145.056459
PR12 -14887.518422 -11756.927694 -17015.675218     30.635053
PR13 -10246.190514   4233.120631 -22980.365707    -38.605965
PR14   1707.438395  20203.809869 -15446.128525     25.145136
PR15  11612.337558  22690.752717    897.102603     86.665305
PR16  14902.282524  11924.810341  16918.302812     18.126199
PR17  -5655.678908   9962.661397  22791.099549     12.547491
PR18  12222.804462  10109.693722  19975.487975     98.948756
PR19  23263.321783   6452.895191   8255.871475   -245.083158
PR20  22080.606765  -2889.522320 -12405.876776    -99.072569
PR21   4653.290868 -10010.843767 -22999.763398    -33.629938
PR22 -12867.571863 -10689.165677 -19234.705659    120.374303
PR24 -21627.510084   4242.611003  12834.571840    -22.133296
PR25   6258.971358  -9979.325302 -22624.548677     40.532147
EOF
